[{"OBJECT_NAME":"STARLINK-4353","OBJECT_ID":"2022-084AB","EPOCH":"2025-11-06T15:25:25.189824","MEAN_MOTION":15.01264456,"ECCENTRICITY":0.0003339,"INCLINATION":97.6028,"RA_OF_ASC_NODE":9.7451,"ARG_OF_PERICENTER":77.0765,"MEAN_ANOMALY":283.0832,"EPHEMERIS_TYPE":0,"CLASSIFICATION_TYPE":"U","NORAD_CAT_ID":53214,"ELEMENT_SET_NO":999,"REV_AT_EPOCH":18085,"BSTAR":-8.993e-6,"MEAN_MOTION_DOT":-1.74e-6,"MEAN_MOTION_DDOT":0},{"OBJECT_NAME":"STARLINK-4335","OBJECT_ID":"2022-084AC","EPOCH":"2025-11-06T09:54:21.460032","MEAN_MOTION":15.05650109,"ECCENTRICITY":0.0001003,"INCLINATION":97.6005,"RA_OF_ASC_NODE":9.7107,"ARG_OF_PERICENTER":99.7239,"MEAN_ANOMALY":260.4101,"EPHEMERIS_TYPE":0,"CLASSIFICATION_TYPE":"U","NORAD_CAT_ID":53215,"ELEMENT_SET_NO":999,"REV_AT_EPOCH":18135,"BSTAR":2.2194e-5,"MEAN_MOTION_DOT":2.6e-6,"MEAN_MOTION_DDOT":0},{"OBJECT_NAME":"STARLINK-4376","OBJECT_ID":"2022-084AD","EPOCH":"2025-11-06T15:20:05.343072","MEAN_MOTION":15.01258115,"ECCENTRICITY":0.0003781,"INCLINATION":97.6009,"RA_OF_ASC_NODE":9.7398,"ARG_OF_PERICENTER":86.2341,"MEAN_ANOMALY":273.9316,"EPHEMERIS_TYPE":0,"CLASSIFICATION_TYPE":"U","NORAD_CAT_ID":53216,"ELEMENT_SET_NO":999,"REV_AT_EPOCH":18085,"BSTAR":0.00017766,"MEAN_MOTION_DOT":2.224e-5,"MEAN_MOTION_DDOT":0},{"OBJECT_NAME":"STARLINK-4384","OBJECT_ID":"2022-084AF","EPOCH":"2025-11-06T14:09:33.941088","MEAN_MOTION":15.05652023,"ECCENTRICITY":0.0001011,"INCLINATION":97.6034,"RA_OF_ASC_NODE":9.9478,"ARG_OF_PERICENTER":84.3358,"MEAN_ANOMALY":275.7984,"EPHEMERIS_TYPE":0,"CLASSIFICATION_TYPE":"U","NORAD_CAT_ID":53218,"ELEMENT_SET_NO":999,"REV_AT_EPOCH":18138,"BSTAR":8.5788e-5,"MEAN_MOTION_DOT":1.177e-5,"MEAN_MOTION_DDOT":0},{"OBJECT_NAME":"STARLINK-4373","OBJECT_ID":"2022-084AG","EPOCH":"2025-11-06T14:49:25.925088","MEAN_MOTION":15.0564751,"ECCENTRICITY":0.0001091,"INCLINATION":97.6014,"RA_OF_ASC_NODE":9.8841,"ARG_OF_PERICENTER":90.8629,"MEAN_ANOMALY":269.2722,"EPHEMERIS_TYPE":0,"CLASSIFICATION_TYPE":"U","NORAD_CAT_ID":53219,"ELEMENT_SET_NO":999,"REV_AT_EPOCH":18086,"BSTAR":-1.3591e-5,"MEAN_MOTION_DOT":-2.57e-6,"MEAN_MOTION_DDOT":0},{"OBJECT_NAME":"STARLINK-4363","OBJECT_ID":"2022-084AH","EPOCH":"2025-11-06T10:21:29.071008","MEAN_MOTION":15.012643,"ECCENTRICITY":0.0003682,"INCLINATION":97.6027,"RA_OF_ASC_NODE":9.5308,"ARG_OF_PERICENTER":61.0861,"MEAN_ANOMALY":299.0732,"EPHEMERIS_TYPE":0,"CLASSIFICATION_TYPE":"U","NORAD_CAT_ID":53220,"ELEMENT_SET_NO":999,"REV_AT_EPOCH":18134,"BSTAR":4.1801e-5,"MEAN_MOTION_DOT":4.79e-6,"MEAN_MOTION_DDOT":0},{"OBJECT_NAME":"STARLINK-4377","OBJECT_ID":"2022-084AJ","EPOCH":"2025-11-06T10:10:49.327392","MEAN_MOTION":15.01259886,"ECCENTRICITY":0.0001906,"INCLINATION":97.602,"RA_OF_ASC_NODE":9.521,"ARG_OF_PERICENTER":93.3324,"MEAN_ANOMALY":266.8118,"EPHEMERIS_TYPE":0,"CLASSIFICATION_TYPE":"U","NORAD_CAT_ID":53221,"ELEMENT_SET_NO":999,"REV_AT_EPOCH":18082,"BSTAR":6.5108e-6,"MEAN_MOTION_DOT":2.5e-7,"MEAN_MOTION_DDOT":0},{"OBJECT_NAME":"STARLINK-4356","OBJECT_ID":"2022-084AM","EPOCH":"2025-11-06T15:04:05.634336","MEAN_MOTION":15.01261717,"ECCENTRICITY":0.0003511,"INCLINATION":97.602,"RA_OF_ASC_NODE":9.7213,"ARG_OF_PERICENTER":81.2423,"MEAN_ANOMALY":278.9199,"EPHEMERIS_TYPE":0,"CLASSIFICATION_TYPE":"U","NORAD_CAT_ID":53224,"ELEMENT_SET_NO":999,"REV_AT_EPOCH":18085,"BSTAR":4.7116e-5,"MEAN_MOTION_DOT":5.47e-6,"MEAN_MOTION_DDOT":0},{"OBJECT_NAME":"STARLINK-4358","OBJECT_ID":"2022-084AN","EPOCH":"2025-11-06T10:06:18.731232","MEAN_MOTION":15.05653931,"ECCENTRICITY":0.0001729,"INCLINATION":97.6034,"RA_OF_ASC_NODE":9.6673,"ARG_OF_PERICENTER":92.8873,"MEAN_ANOMALY":267.2552,"EPHEMERIS_TYPE":0,"CLASSIFICATION_TYPE":"U","NORAD_CAT_ID":53225,"ELEMENT_SET_NO":999,"REV_AT_EPOCH":18083,"BSTAR":6.1958e-5,"MEAN_MOTION_DOT":8.33e-6,"MEAN_MOTION_DDOT":0},{"OBJECT_NAME":"STARLINK-4359","OBJECT_ID":"2022-084AP","EPOCH":"2025-11-06T10:00:08.870976","MEAN_MOTION":15.01260079,"ECCENTRICITY":9.67e-5,"INCLINATION":97.6013,"RA_OF_ASC_NODE":9.5259,"ARG_OF_PERICENTER":198.2619,"MEAN_ANOMALY":161.8571,"EPHEMERIS_TYPE":0,"CLASSIFICATION_TYPE":"U","NORAD_CAT_ID":53226,"ELEMENT_SET_NO":999,"REV_AT_EPOCH":18082,"BSTAR":-8.6319e-6,"MEAN_MOTION_DOT":-1.69e-6,"MEAN_MOTION_DDOT":0},{"OBJECT_NAME":"STARLINK-4366","OBJECT_ID":"2022-084AQ","EPOCH":"2025-11-06T14:25:30.181728","MEAN_MOTION":15.05654389,"ECCENTRICITY":0.0001333,"INCLINATION":97.603,"RA_OF_ASC_NODE":9.8609,"ARG_OF_PERICENTER":82.3686,"MEAN_ANOMALY":277.7692,"EPHEMERIS_TYPE":0,"CLASSIFICATION_TYPE":"U","NORAD_CAT_ID":53227,"ELEMENT_SET_NO":999,"REV_AT_EPOCH":18086,"BSTAR":8.5715e-5,"MEAN_MOTION_DOT":1.176e-5,"MEAN_MOTION_DDOT":0},{"OBJECT_NAME":"STARLINK-4365","OBJECT_ID":"2022-084AR","EPOCH":"2025-11-06T10:05:28.745376","MEAN_MOTION":15.01268029,"ECCENTRICITY":3.5e-5,"INCLINATION":97.6019,"RA_OF_ASC_NODE":9.5175,"ARG_OF_PERICENTER":130.6618,"MEAN_ANOMALY":229.4637,"EPHEMERIS_TYPE":0,"CLASSIFICATION_TYPE":"U","NORAD_CAT_ID":53228,"ELEMENT_SET_NO":999,"REV_AT_EPOCH":18082,"BSTAR":9.7724e-5,"MEAN_MOTION_DOT":1.197e-5,"MEAN_MOTION_DDOT":0},{"OBJECT_NAME":"STARLINK-4367","OBJECT_ID":"2022-084AS","EPOCH":"2025-11-06T09:46:22.751328","MEAN_MOTION":15.05654578,"ECCENTRICITY":0.0001448,"INCLINATION":97.6028,"RA_OF_ASC_NODE":9.6743,"ARG_OF_PERICENTER":86.1753,"MEAN_ANOMALY":273.9639,"EPHEMERIS_TYPE":0,"CLASSIFICATION_TYPE":"U","NORAD_CAT_ID":53229,"ELEMENT_SET_NO":999,"REV_AT_EPOCH":18083,"BSTAR":7.0995e-5,"MEAN_MOTION_DOT":9.64e-6,"MEAN_MOTION_DDOT":0},{"OBJECT_NAME":"STARLINK-4364","OBJECT_ID":"2022-084AT","EPOCH":"2025-11-06T18:48:41.065632","MEAN_MOTION":15.05651841,"ECCENTRICITY":7.55e-5,"INCLINATION":97.6032,"RA_OF_ASC_NODE":10.1039,"ARG_OF_PERICENTER":97.7356,"MEAN_ANOMALY":262.3957,"EPHEMERIS_TYPE":0,"CLASSIFICATION_TYPE":"U","NORAD_CAT_ID":53230,"ELEMENT_SET_NO":999,"REV_AT_EPOCH":18089,"BSTAR":8.1489e-5,"MEAN_MOTION_DOT":1.115e-5,"MEAN_MOTION_DDOT":0},{"OBJECT_NAME":"STARLINK-4370","OBJECT_ID":"2022-084AU","EPOCH":"2025-11-06T14:17:32.970336","MEAN_MOTION":15.05655704,"ECCENTRICITY":0.000142,"INCLINATION":97.6039,"RA_OF_ASC_NODE":9.8777,"ARG_OF_PERICENTER":91.6748,"MEAN_ANOMALY":268.4642,"EPHEMERIS_TYPE":0,"CLASSIFICATION_TYPE":"U","NORAD_CAT_ID":53231,"ELEMENT_SET_NO":999,"REV_AT_EPOCH":18086,"BSTAR":0.00025874,"MEAN_MOTION_DOT":3.675e-5,"MEAN_MOTION_DDOT":0},{"OBJECT_NAME":"STARLINK-4371","OBJECT_ID":"2022-084AV","EPOCH":"2025-11-06T09:54:48.822048","MEAN_MOTION":15.01260501,"ECCENTRICITY":0.0002624,"INCLINATION":97.6019,"RA_OF_ASC_NODE":9.5092,"ARG_OF_PERICENTER":204.5223,"MEAN_ANOMALY":155.5876,"EPHEMERIS_TYPE":0,"CLASSIFICATION_TYPE":"U","NORAD_CAT_ID":53232,"ELEMENT_SET_NO":999,"REV_AT_EPOCH":18082,"BSTAR":1.0276e-6,"MEAN_MOTION_DOT":-4.5e-7,"MEAN_MOTION_DDOT":0},{"OBJECT_NAME":"STARLINK-4372","OBJECT_ID":"2022-084AW","EPOCH":"2025-11-06T09:47:10.336992","MEAN_MOTION":15.012684,"ECCENTRICITY":0.0002677,"INCLINATION":97.6021,"RA_OF_ASC_NODE":9.5063,"ARG_OF_PERICENTER":185.6009,"MEAN_ANOMALY":174.5186,"EPHEMERIS_TYPE":0,"CLASSIFICATION_TYPE":"U","NORAD_CAT_ID":53233,"ELEMENT_SET_NO":999,"REV_AT_EPOCH":18082,"BSTAR":-0.00011868,"MEAN_MOTION_DOT":-1.583e-5,"MEAN_MOTION_DDOT":0},{"OBJECT_NAME":"STARLINK-4368","OBJECT_ID":"2022-084AX","EPOCH":"2025-11-06T09:49:30.148608","MEAN_MOTION":15.01256189,"ECCENTRICITY":0.0002942,"INCLINATION":97.6021,"RA_OF_ASC_NODE":9.5007,"ARG_OF_PERICENTER":184.45,"MEAN_ANOMALY":175.6699,"EPHEMERIS_TYPE":0,"CLASSIFICATION_TYPE":"U","NORAD_CAT_ID":53234,"ELEMENT_SET_NO":999,"REV_AT_EPOCH":18183,"BSTAR":-1.9766e-6,"MEAN_MOTION_DOT":-8.4e-7,"MEAN_MOTION_DDOT":0},{"OBJECT_NAME":"STARLINK-4056","OBJECT_ID":"2022-086A","EPOCH":"2025-11-06T15:06:36.728064","MEAN_MOTION":15.08837558,"ECCENTRICITY":0.0001252,"INCLINATION":53.2197,"RA_OF_ASC_NODE":31.5513,"ARG_OF_PERICENTER":67.8127,"MEAN_ANOMALY":292.2998,"EPHEMERIS_TYPE":0,"CLASSIFICATION_TYPE":"U","NORAD_CAT_ID":53242,"ELEMENT_SET_NO":999,"REV_AT_EPOCH":18273,"BSTAR":3.4604e-5,"MEAN_MOTION_DOT":2.63e-6,"MEAN_MOTION_DDOT":0},{"OBJECT_NAME":"STARLINK-4047","OBJECT_ID":"2022-086B","EPOCH":"2025-11-06T16:01:32.456064","MEAN_MOTION":15.08844326,"ECCENTRICITY":0.0001326,"INCLINATION":53.2178,"RA_OF_ASC_NODE":36.078,"ARG_OF_PERICENTER":82.3083,"MEAN_ANOMALY":277.806,"EPHEMERIS_TYPE":0,"CLASSIFICATION_TYPE":"U","NORAD_CAT_ID":53243,"ELEMENT_SET_NO":999,"REV_AT_EPOCH":18269,"BSTAR":0.00089321,"MEAN_MOTION_DOT":0.00013958,"MEAN_MOTION_DDOT":0},{"OBJECT_NAME":"STARLINK-4125","OBJECT_ID":"2022-086C","EPOCH":"2025-11-06T15:03:18.561024","MEAN_MOTION":15.08846286,"ECCENTRICITY":0.0001816,"INCLINATION":53.2216,"RA_OF_ASC_NODE":36.6413,"ARG_OF_PERICENTER":71.5826,"MEAN_ANOMALY":288.5363,"EPHEMERIS_TYPE":0,"CLASSIFICATION_TYPE":"U","NORAD_CAT_ID":53244,"ELEMENT_SET_NO":999,"REV_AT_EPOCH":18266,"BSTAR":8.4314e-5,"MEAN_MOTION_DOT":1.054e-5,"MEAN_MOTION_DDOT":0},{"OBJECT_NAME":"STARLINK-4131","OBJECT_ID":"2022-086E","EPOCH":"2025-11-06T16:33:22.855104","MEAN_MOTION":15.08852017,"ECCENTRICITY":0.0001578,"INCLINATION":53.2187,"RA_OF_ASC_NODE":36.2857,"ARG_OF_PERICENTER":84.5123,"MEAN_ANOMALY":275.605,"EPHEMERIS_TYPE":0,"CLASSIFICATION_TYPE":"U","NORAD_CAT_ID":53246,"ELEMENT_SET_NO":999,"REV_AT_EPOCH":18156,"BSTAR":3.5058e-5,"MEAN_MOTION_DOT":2.7e-6,"MEAN_MOTION_DDOT":0},{"OBJECT_NAME":"STARLINK-4061","OBJECT_ID":"2022-086F","EPOCH":"2025-11-06T15:27:49.122720","MEAN_MOTION":15.0885833,"ECCENTRICITY":0.0001492,"INCLINATION":53.2178,"RA_OF_ASC_NODE":31.6745,"ARG_OF_PERICENTER":86.1345,"MEAN_ANOMALY":273.9817,"EPHEMERIS_TYPE":0,"CLASSIFICATION_TYPE":"U","NORAD_CAT_ID":53247,"ELEMENT_SET_NO":999,"REV_AT_EPOCH":18273,"BSTAR":0.00015743,"MEAN_MOTION_DOT":2.22e-5,"MEAN_MOTION_DDOT":0},{"OBJECT_NAME":"STARLINK-4135","OBJECT_ID":"2022-086G","EPOCH":"2025-11-06T12:01:12.023904","MEAN_MOTION":15.08816846,"ECCENTRICITY":0.000137,"INCLINATION":53.2207,"RA_OF_ASC_NODE":32.2432,"ARG_OF_PERICENTER":87.1334,"MEAN_ANOMALY":272.9815,"EPHEMERIS_TYPE":0,"CLASSIFICATION_TYPE":"U","NORAD_CAT_ID":53248,"ELEMENT_SET_NO":999,"REV_AT_EPOCH":18271,"BSTAR":-0.00010123,"MEAN_MOTION_DOT":-1.898e-5,"MEAN_MOTION_DDOT":0}]
